{"fetched_at":"2026-03-29T16:36:15Z","count":15609,"tles":[{"name":"STARLINK-33683","line1":"1 63573U 25076E   26087.76240518  .00023202  00000+0  84928-3 0  9992","line2":"2 63573  42.9999 214.3050 0001218 276.9004  83.1709 15.27608490 54743","category":"Starlink"}]}