{
  "norad_id": 63573,
  "name": "STARLINK-33683",
  "history": [
    {
      "epoch": "2026-03-28T18:17:51.807552",
      "apogee_km": 483.7994701322714,
      "perigee_km": 482.12810598030137,
      "latitude_deg": -37.05202263497207,
      "longitude_deg": -109.50910271983594,
      "semi_major_axis_km": 6861.100788056286,
      "eccentricity": 0.0001218,
      "inclination_deg": 42.9999,
      "raan_deg": 214.305,
      "arg_perigee_deg": 276.9004,
      "mean_anomaly_deg": 83.1709,
      "mean_motion_rev_day": 15.2760849
    }
  ]
}